DCCODE,OrderDate,DeliveryDate,B1,StoreCode,Name1,Street,Street 2,Citytext,StoreAddress,Region,STO,STOLine,Article,Name,CLD,CLDEA,Ea,IN,INEA,Each,AUX1,AUX2,EAN,EANUOM,EAN1,EANUOM1,EAN2,EANUOM2,EAN3,EANUOM3,EAN4,EANUOM4,EAN5,EANUOM5,B2,B3,Route,Stop,Priority,StorageCondition,Wave
9899,20220328,20220329,1,2519,DESARU UTAMA 2 JHR,"No 101, GF","Jln Kempas, Tmn Desaru Utama",Bandar Penawar,81930,JOH,29298959,1,207301,Article 001,1,12,12,3,4,0,0,0,9.55549E+12,EA,9.55549E+12,IN,1.23124E+13,EA,1.23456E+14,IN,0,0,0,IN,0,0,Dehlivery 001,1,Priority 001,MC,2.02205E+11
9899,20220328,20220329,1,2519,DESARU UTAMA 2 JHR,"No 101, GF","Jln Kempas, Tmn Desaru Utama",Bandar Penawar,81930,JOH,29298965,2,407301,Article 002,1,4,12,2,2,0,0,0,9.55549E+12,EA,9.55549E+12,IN,1.23124E+13,IN,1.23456E+14,EA,0,0,0,EA,0,0,Dehlivery 001,1,Priority 001,FT,2.02205E+11
9899,20220328,20220329,1,2519,DESARU UTAMA 2 JHR,"No 101, GF","Jln Kempas, Tmn Desaru Utama",Bandar Penawar,81930,JOH,29298959,3,207098,Article 003,1,16,12,5,3,1,0,0,9.55503E+12,IN,9.55549E+12,EA,1.23124E+13,EA,1.23456E+14,EA,0,0,0,EA,0,0,Dehlivery 001,1,Priority 001,FT,2.02205E+11
9899,20220328,20220329,1,2519,DESARU UTAMA 2 JHR,"No 101, GF","Jln Kempas, Tmn Desaru Utama",Bandar Penawar,81930,JOH,29298959,4,206751,Article 004,3,12,12,9,4,0,0,0,8.8882E+12,IN,9.55549E+12,IN,1.23124E+13,IN,1.23456E+14,IN,0,0,0,IN,0,0,Dehlivery 001,1,Priority 001,MC,2.02205E+11
9899,20220328,20220329,1,2519,DESARU UTAMA 2 JHR,"No 101, GF","Jln Kempas, Tmn Desaru Utama",Bandar Penawar,81930,JOH,29298959,5,206565,Article 005,1,2,2,2,1,0,0,0,9.55502E+12,IN,9.55549E+12,EA,1.23124E+13,IN,1.23456E+14,EA,4.23456E+14,EA,0,EA,0,0,Dehlivery 001,1,Priority 001,MC,2.02205E+11
9899,20220328,20220329,1,2519,DESARU UTAMA 2 JHR,"No 101, GF","Jln Kempas, Tmn Desaru Utama",Bandar Penawar,81930,JOH,29298959,6,206302,Article 006,5,1,12,5,1,0,0,0,9.55549E+12,EA,9.55549E+12,EA,1.23124E+13,EA,1.23456E+14,EA,4.23456E+14,EA,0,EA,0,0,Dehlivery 001,1,Priority 001,MC,2.02205E+11
9899,20220328,20220329,1,2519,DESARU UTAMA 2 JHR,"No 101, GF","Jln Kempas, Tmn Desaru Utama",Bandar Penawar,81930,JOH,29298959,7,206295,Article 007,2,24,1,12,4,0,0,0,8.80951E+12,IN,9.55549E+12,IN,1.23124E+13,IN,1.23456E+14,IN,4.23456E+14,IN,0,IN,0,0,Dehlivery 001,1,Priority 001,MC,2.02205E+11
9899,20220328,20220329,1,2519,DESARU UTAMA 2 JHR,"No 101, GF","Jln Kempas, Tmn Desaru Utama",Bandar Penawar,81930,JOH,29298959,8,206228,Article 008,1,10,24,10,1,0,0,0,6.94284E+12,EA,9.55549E+12,EA,1.23124E+13,EA,1.23456E+14,EA,4.23456E+14,EA,0,EA,0,0,Dehlivery 001,1,Priority 001,FT,2.02205E+11
9899,20220328,20220329,1,2519,DESARU UTAMA 2 JHR,"No 101, GF","Jln Kempas, Tmn Desaru Utama",Bandar Penawar,81930,JOH,29298959,9,206011,Article 009,1,3,10,1,2,1,0,0,9.31406E+12,IN,9.55549E+12,IN,1.23124E+13,EA,1.23456E+14,EA,4.23456E+14,EA,0,EA,0,0,Dehlivery 001,1,Priority 001,MC,2.02205E+11
9899,20220328,20220329,1,2519,DESARU UTAMA 2 JHR,"No 101, GF","Jln Kempas, Tmn Desaru Utama",Bandar Penawar,81930,JOH,29298959,10,205876,Article 010,1,4,2,2,2,0,0,0,9.55508E+12,IN,9.55549E+12,IN,1.23124E+13,EA,1.23456E+14,IN,4.23456E+14,IN,0,IN,0,0,Dehlivery 001,1,Priority 001,FT,2.02205E+11
9899,20220328,20220329,1,2519,DESARU UTAMA 2 JHR,"No 101, GF","Jln Kempas, Tmn Desaru Utama",Bandar Penawar,81930,JOH,29298959,11,205856,Article 011,1,8,2,2,4,0,0,0,9.556E+12,EA,9.55549E+12,IN,1.23124E+13,IN,1.23456E+14,EA,4.23456E+14,EA,0,IN,0,0,Dehlivery 001,1,Priority 001,FT,2.02205E+11
9899,20220328,20220329,1,2519,DESARU UTAMA 2 JHR,"No 101, GF","Jln Kempas, Tmn Desaru Utama",Bandar Penawar,81930,JOH,29298959,12,205708,Article 012,1,8,1,2,4,0,0,0,7.6222E+12,EA,9.55549E+12,EA,1.23124E+13,EA,1.23456E+14,EA,4.23456E+14,EA,0,EA,0,0,Dehlivery 001,1,Priority 001,MC,2.02205E+11
9899,20220328,20220329,1,2519,DESARU UTAMA 2 JHR,"No 101, GF","Jln Kempas, Tmn Desaru Utama",Bandar Penawar,81930,JOH,29298959,13,205629,Article 013,1,8,2,2,4,0,0,0,8.80106E+12,IN,9.55549E+12,EA,1.23124E+13,IN,1.23456E+14,IN,4.23456E+14,IN,0,EA,0,0,Dehlivery 001,1,Priority 001,FT,2.02205E+11
9899,20220328,20220329,1,2519,DESARU UTAMA 2 JHR,"No 101, GF","Jln Kempas, Tmn Desaru Utama",Bandar Penawar,81930,JOH,29298959,14,205622,Article 014,2,8,5,4,4,0,0,0,8.93468E+12,IN,9.55549E+12,IN,1.23124E+13,IN,1.23456E+14,EA,4.23456E+14,EA,0,IN,0,0,Dehlivery 001,1,Priority 001,FT,2.02205E+11
9899,20220328,20220329,1,2519,DESARU UTAMA 2 JHR,"No 101, GF","Jln Kempas, Tmn Desaru Utama",Bandar Penawar,81930,JOH,29298959,15,205592,Article 015,1,8,5,2,4,0,0,0,9.55564E+12,IN,9.55549E+12,EA,1.23124E+13,EA,1.23456E+14,EA,4.23456E+14,EA,0,EA,0,0,Dehlivery 001,1,Priority 001,MC,2.02205E+11
9899,20220328,20220329,1,2519,DESARU UTAMA 2 JHR,"No 101, GF","Jln Kempas, Tmn Desaru Utama",Bandar Penawar,81930,JOH,29298959,16,205575,Article 016,1,6,4,1,4,2,0,0,9.55603E+12,EA,9.55549E+12,IN,1.23124E+13,IN,1.23456E+14,IN,4.23456E+14,IN,0,EA,0,0,Dehlivery 001,1,Priority 001,MC,2.02205E+11
9899,20220328,20220329,1,2519,DESARU UTAMA 2 JHR,"No 101, GF","Jln Kempas, Tmn Desaru Utama",Bandar Penawar,81930,JOH,29298959,17,205447,Article 017,1,4,2,1,4,0,0,0,8.99887E+12,IN,9.55549E+12,IN,1.23124E+13,EA,1.23456E+14,EA,4.23456E+14,EA,0,IN,0,0,Dehlivery 001,1,Priority 001,MC,2.02205E+11
9899,20220328,20220329,1,2519,DESARU UTAMA 2 JHR,"No 101, GF","Jln Kempas, Tmn Desaru Utama",Bandar Penawar,81930,JOH,29298959,18,205335,Article 018,1,9,1,2,4,1,0,0,9.556E+12,EA,9.55549E+12,EA,1.23124E+13,EA,1.23456E+14,EA,4.23456E+14,EA,0,EA,0,0,Dehlivery 001,1,Priority 001,MC,2.02205E+11
9899,20220328,20220329,1,2519,DESARU UTAMA 2 JHR,"No 101, GF","Jln Kempas, Tmn Desaru Utama",Bandar Penawar,81930,JOH,29298959,19,205322,Article 019,2,19,10,9,4,2,0,0,9.556E+12,IN,9.55549E+12,IN,1.23124E+13,EA,1.23456E+14,IN,4.23456E+14,IN,0,EA,0,0,Dehlivery 001,1,Priority 001,FT,2.02205E+11
9899,20220328,20220329,1,2519,DESARU UTAMA 2 JHR,"No 101, GF","Jln Kempas, Tmn Desaru Utama",Bandar Penawar,81930,JOH,29298959,20,204829,Article 020,1,8,24,2,4,0,0,0,8.99274E+12,IN,9.55549E+12,EA,1.23124E+13,IN,1.23456E+14,EA,4.23456E+14,EA,0,IN,0,0,Dehlivery 001,1,Priority 001,MC,2.02205E+11
9899,20220328,20220329,1,2519,DESARU UTAMA 2 JHR,"No 101, GF","Jln Kempas, Tmn Desaru Utama",Bandar Penawar,81930,JOH,29298959,21,204702,Article 021,1,8,5,2,4,0,0,0,7.62221E+12,EA,9.55549E+12,EA,1.23124E+13,EA,1.23456E+14,EA,0,0,0,IN,0,0,Dehlivery 001,1,Priority 001,FT,2.02205E+11
9899,20220328,20220329,1,2519,DESARU UTAMA 2 JHR,"No 101, GF","Jln Kempas, Tmn Desaru Utama",Bandar Penawar,81930,JOH,29298959,22,204667,Article 022,1,9,2,2,4,1,0,0,8.85193E+12,EA,9.55549E+12,IN,1.23124E+13,IN,1.23456E+14,IN,0,0,0,EA,0,0,Dehlivery 001,1,Priority 001,FT,2.02205E+11
9899,20220328,20220329,1,2519,DESARU UTAMA 2 JHR,"No 101, GF","Jln Kempas, Tmn Desaru Utama",Bandar Penawar,81930,JOH,29298959,23,204622,Article 023,1,10,2,2,4,2,0,0,9.55613E+12,IN,9.55549E+12,EA,1.23124E+13,IN,1.23456E+14,EA,0,0,0,EA,0,0,Dehlivery 001,1,Priority 001,MC,2.02205E+11
9899,20220328,20220329,1,2519,DESARU UTAMA 2 JHR,"No 101, GF","Jln Kempas, Tmn Desaru Utama",Bandar Penawar,81930,JOH,29298959,24,204550,Article 024,1,11,12,2,4,3,0,0,7.6222E+12,IN,9.55549E+12,IN,1.23124E+13,EA,1.23456E+14,EA,0,0,0,IN,0,0,Dehlivery 001,1,Priority 001,FT,2.02205E+11
9899,20220328,20220329,1,2519,DESARU UTAMA 2 JHR,"No 101, GF","Jln Kempas, Tmn Desaru Utama",Bandar Penawar,81930,JOH,29298959,25,204270,Article 025,1,12,2,3,4,0,0,0,9.55602E+12,IN,9.55549E+12,IN,1.23124E+13,IN,1.23456E+14,IN,0,0,0,EA,0,0,Dehlivery 001,1,Priority 001,FT,2.02205E+11
9899,20220328,20220329,1,2519,DESARU UTAMA 2 JHR,"No 101, GF","Jln Kempas, Tmn Desaru Utama",Bandar Penawar,81930,JOH,29298959,26,204170,Article 026,2,2,2,1,4,0,0,0,8.88828E+12,EA,9.55549E+12,IN,1.23124E+13,EA,1.23456E+14,EA,0,0,0,EA,0,0,Dehlivery 001,1,Priority 001,MC,2.02205E+11
9899,20220328,20220329,1,2519,DESARU UTAMA 2 JHR,"No 101, GF","Jln Kempas, Tmn Desaru Utama",Bandar Penawar,81930,JOH,29298959,27,204169,Article 027,1,8,2,2,4,0,0,0,8.88828E+12,IN,9.55549E+12,EA,1.23124E+13,EA,1.23456E+14,EA,0,0,0,IN,0,0,Dehlivery 001,1,Priority 001,MC,2.02205E+11
9899,20220328,20220329,1,2519,DESARU UTAMA 2 JHR,"No 101, GF","Jln Kempas, Tmn Desaru Utama",Bandar Penawar,81930,JOH,29298959,28,203660,Article 028,2,8,24,4,4,0,0,0,9.55508E+12,EA,9.55549E+12,EA,1.23124E+13,EA,1.23456E+14,IN,0,0,0,EA,0,0,Dehlivery 001,1,Priority 001,MC,2.02205E+11
9899,20220328,20220329,1,2519,DESARU UTAMA 2 JHR,"No 101, GF","Jln Kempas, Tmn Desaru Utama",Bandar Penawar,81930,JOH,29298959,29,203399,Article 029,1,11,6,2,4,3,0,0,9.55603E+12,IN,9.55549E+12,IN,1.23124E+13,IN,1.23456E+14,EA,0,0,0,EA,0,0,Dehlivery 001,1,Priority 001,MC,2.02205E+11
9899,20220328,20220329,1,2519,DESARU UTAMA 2 JHR,"No 101, GF","Jln Kempas, Tmn Desaru Utama",Bandar Penawar,81930,JOH,29298959,30,203356,Article 030,2,3,4,1,4,2,0,0,9.556E+12,IN,9.55549E+12,EA,1.23124E+13,EA,1.23456E+14,EA,0,0,0,IN,0,0,Dehlivery 001,1,Priority 001,FT,2.02205E+11
9899,20220328,20220329,1,2519,DESARU UTAMA 2 JHR,"No 101, GF","Jln Kempas, Tmn Desaru Utama",Bandar Penawar,81930,JOH,29298959,31,203203,Article 031,1,5,1,1,4,1,0,0,9.55602E+12,EA,9.55549E+12,IN,1.23124E+13,IN,1.23456E+14,IN,0,0,0,IN,0,0,Dehlivery 001,1,Priority 001,MC,2.02205E+11
9899,20220328,20220329,1,2519,DESARU UTAMA 2 JHR,"No 101, GF","Jln Kempas, Tmn Desaru Utama",Bandar Penawar,81930,JOH,29298959,32,202991,Article 032,2,9,12,4,4,2,0,0,6.97087E+12,EA,9.55549E+12,IN,1.23124E+13,IN,1.23456E+14,EA,0,0,0,EA,0,0,Dehlivery 001,1,Priority 001,FT,2.02205E+11
9899,20220328,20220329,1,2519,DESARU UTAMA 2 JHR,"No 101, GF","Jln Kempas, Tmn Desaru Utama",Bandar Penawar,81930,JOH,29298959,33,21014,Article 033,1,9,14,2,4,1,0,0,9.55706E+12,IN,9.55549E+12,EA,1.23124E+13,EA,1.23456E+14,EA,0,0,0,EA,0,0,Dehlivery 001,1,Priority 001,FT,2.02205E+11
9899,20220328,20220329,1,2519,DESARU UTAMA 2 JHR,"No 101, GF","Jln Kempas, Tmn Desaru Utama",Bandar Penawar,81930,JOH,29298959,34,15951,Article 034,7,9,14,15,4,3,0,0,9.55706E+12,IN,9.55549E+12,IN,1.23124E+13,IN,1.23456E+14,IN,0,0,0,IN,0,0,Dehlivery 001,1,Priority 001,MC,2.02205E+11
9899,20220328,20220329,1,2519,DESARU UTAMA 2 JHR,"No 101, GF","Jln Kempas, Tmn Desaru Utama",Bandar Penawar,81930,JOH,29298959,35,15402,Article 035,2,9,14,4,4,2,0,0,9.55706E+12,IN,9.55549E+12,EA,1.23124E+13,EA,1.23456E+14,EA,0,0,0,EA,0,0,Dehlivery 001,1,Priority 001,FT,2.02205E+11
9899,20220328,20220329,1,2519,DESARU UTAMA 2 JHR,"No 101, GF","Jln Kempas, Tmn Desaru Utama",Bandar Penawar,81930,JOH,29298959,36,15401,Article 036,4,9,14,9,4,0,0,0,9.55706E+12,EA,9.55549E+12,EA,1.23124E+13,EA,1.23456E+14,EA,0,0,0,EA,0,0,Dehlivery 001,1,Priority 001,FT,2.02205E+11
9899,20220328,20220329,1,2519,DESARU UTAMA 2 JHR,"No 101, GF","Jln Kempas, Tmn Desaru Utama",Bandar Penawar,81930,JOH,29298959,37,11486,Article 037,1,9,12,2,4,1,0,0,51325112527,IN,9.55549E+12,IN,1.23124E+13,EA,1.23456E+14,IN,0,0,0,0,0,0,Dehlivery 001,1,Priority 001,MC,2.02205E+11
9899,20220328,20220329,1,2519,DESARU UTAMA 2 JHR,"No 101, GF","Jln Kempas, Tmn Desaru Utama",Bandar Penawar,81930,JOH,29298959,38,207777,Article 038,1,9,24,2,4,1,0,0,9.55613E+12,EA,9.55549E+12,EA,1.23124E+13,IN,1.23456E+14,EA,0,0,0,0,0,0,Dehlivery 001,1,Priority 001,MC,2.02205E+11
9899,20220328,20220329,1,2519,DESARU UTAMA 2 JHR,"No 101, GF","Jln Kempas, Tmn Desaru Utama",Bandar Penawar,81930,JOH,29298959,39,206804,Article 039,1,9,24,2,4,1,0,0,9.55657E+12,IN,9.55549E+12,IN,1.23124E+13,EA,1.23456E+14,EA,0,0,0,0,0,0,Dehlivery 001,1,Priority 001,MC,2.02205E+11
9899,20220328,20220329,1,2519,DESARU UTAMA 2 JHR,"No 101, GF","Jln Kempas, Tmn Desaru Utama",Bandar Penawar,81930,JOH,29298959,40,205497,Article 040,1,9,12,2,4,1,0,0,9.55657E+12,IN,9.55549E+12,IN,1.23124E+13,IN,1.23456E+14,IN,0,0,0,0,0,0,Dehlivery 001,1,Priority 001,MC,2.02205E+11
9899,20220328,20220329,1,2519,DESARU UTAMA 2 JHR,"No 101, GF","Jln Kempas, Tmn Desaru Utama",Bandar Penawar,81930,JOH,29298959,41,205495,Article 041,1,9,12,2,4,1,0,0,9.55657E+12,EA,9.55549E+12,IN,1.23124E+13,IN,1.23456E+14,EA,0,0,0,0,0,0,Dehlivery 001,1,Priority 001,FT,2.02205E+11
9899,20220328,20220329,1,2519,DESARU UTAMA 2 JHR,"No 101, GF","Jln Kempas, Tmn Desaru Utama",Bandar Penawar,81930,JOH,29298959,42,204965,Article 042,1,9,24,2,4,1,0,0,9.55625E+12,EA,9.55549E+12,EA,1.23124E+13,EA,1.23456E+14,EA,0,0,0,0,0,0,Dehlivery 001,1,Priority 001,MC,2.02205E+11
9899,20220328,20220329,1,2519,DESARU UTAMA 2 JHR,"No 101, GF","Jln Kempas, Tmn Desaru Utama",Bandar Penawar,81930,JOH,29298959,43,201468,Article 043,1,11,10,2,4,3,0,0,8.85102E+12,IN,9.55549E+12,EA,1.23124E+13,IN,1.23456E+14,IN,0,0,0,0,0,0,Dehlivery 001,1,Priority 001,FT,2.02205E+11
9899,20220328,20220329,1,2519,DESARU UTAMA 2 JHR,"No 101, GF","Jln Kempas, Tmn Desaru Utama",Bandar Penawar,81930,JOH,29298959,44,200640,Article 044,1,11,4,2,4,3,0,0,8.80107E+12,IN,9.55549E+12,IN,1.23124E+13,EA,1.23456E+14,EA,0,0,0,0,0,0,Dehlivery 001,1,Priority 001,FT,2.02205E+11
9899,20220328,20220329,1,2519,DESARU UTAMA 2 JHR,"No 101, GF","Jln Kempas, Tmn Desaru Utama",Bandar Penawar,81930,JOH,29298959,45,28042,Article 045,1,11,24,2,4,3,0,0,80974482,IN,9.55549E+12,EA,1.23124E+13,EA,1.23456E+14,EA,0,0,0,0,0,0,Dehlivery 001,1,Priority 001,MC,2.02205E+11
9899,20220328,20220329,1,2519,DESARU UTAMA 2 JHR,"No 101, GF","Jln Kempas, Tmn Desaru Utama",Bandar Penawar,81930,JOH,29298959,46,23363,Article 046,1,15,8,3,4,3,0,0,9.55602E+12,EA,9.55549E+12,IN,1.23124E+13,EA,1.23456E+14,IN,0,0,0,0,0,0,Dehlivery 001,1,Priority 001,FT,2.02205E+11
9899,20220328,20220329,1,2519,DESARU UTAMA 2 JHR,"No 101, GF","Jln Kempas, Tmn Desaru Utama",Bandar Penawar,81930,JOH,29298959,47,22467,Article 047,1,14,24,3,4,2,0,0,9.55657E+12,IN,9.55549E+12,IN,1.23124E+13,IN,1.23456E+14,EA,0,0,0,0,0,0,Dehlivery 001,1,Priority 001,FT,2.02205E+11
9899,20220328,20220329,1,2519,DESARU UTAMA 2 JHR,"No 101, GF","Jln Kempas, Tmn Desaru Utama",Bandar Penawar,81930,JOH,29298959,48,21313,Article 048,1,14,20,3,4,2,0,0,9.55602E+12,EA,9.55549E+12,EA,1.23124E+13,EA,1.23456E+14,EA,0,0,0,0,0,0,Dehlivery 001,1,Priority 001,MC,2.02205E+11
9899,20220328,20220329,1,2519,DESARU UTAMA 2 JHR,"No 101, GF","Jln Kempas, Tmn Desaru Utama",Bandar Penawar,81930,JOH,29298959,49,11688,Article 049,1,16,24,4,4,0,0,0,95500300,IN,9.55549E+12,IN,1.23124E+13,IN,1.23456E+14,IN,0,0,0,0,0,0,Dehlivery 001,1,Priority 001,MC,2.02205E+11
9899,20220328,20220329,1,2519,DESARU UTAMA 2 JHR,"No 101, GF","Jln Kempas, Tmn Desaru Utama",Bandar Penawar,81930,JOH,29298959,50,11031,Article 050,1,14,24,3,4,2,0,0,6.91497E+12,IN,9.55549E+12,EA,1.23124E+13,IN,1.23456E+14,EA,0,0,0,0,0,0,Dehlivery 001,1,Priority 001,MC,2.02205E+11
9899,20220328,20220329,1,2519,DESARU UTAMA 2 JHR,"No 101, GF","Jln Kempas, Tmn Desaru Utama",Bandar Penawar,81930,JOH,29298959,51,10819,Article 051,1,14,15,3,4,2,0,0,95505701,EA,9.55549E+12,EA,1.23124E+13,EA,1.23456E+14,EA,0,0,0,0,0,0,Dehlivery 001,1,Priority 001,MC,2.02205E+11
9899,20220328,20220329,1,2519,DESARU UTAMA 2 JHR,"No 101, GF","Jln Kempas, Tmn Desaru Utama",Bandar Penawar,81930,JOH,29298959,52,10564,Article 052,1,8,24,2,4,0,0,0,9.55603E+12,EA,9.55549E+12,IN,1.23124E+13,IN,1.23456E+14,IN,0,0,0,0,0,0,Dehlivery 001,1,Priority 001,FT,2.02205E+11
9899,20220328,20220329,1,2519,DESARU UTAMA 2 JHR,"No 101, GF","Jln Kempas, Tmn Desaru Utama",Bandar Penawar,81930,JOH,29298959,53,10345,Article 053,1,8,24,2,4,0,0,0,9.55657E+12,IN,9.55549E+12,EA,1.23124E+13,EA,1.23456E+14,EA,0,0,0,0,0,0,Dehlivery 001,1,Priority 001,MC,2.02205E+11
9899,20220328,20220329,1,2519,DESARU UTAMA 2 JHR,"No 101, GF","Jln Kempas, Tmn Desaru Utama",Bandar Penawar,81930,JOH,29298959,54,10000,Article 054,1,8,24,2,4,0,0,0,9.55606E+12,IN,9.55549E+12,IN,1.23124E+13,EA,1.23456E+14,EA,0,0,0,0,0,0,Dehlivery 001,1,Priority 001,FT,2.02205E+11
9899,20220328,20220329,1,2519,DESARU UTAMA 2 JHR,"No 101, GF","Jln Kempas, Tmn Desaru Utama",Bandar Penawar,81930,JOH,29298959,55,207576,Article 055,1,8,3,2,4,0,0,0,4.89134E+12,IN,9.55549E+12,IN,1.23124E+13,EA,1.23456E+14,IN,0,0,0,0,0,0,Dehlivery 001,1,Priority 001,FT,2.02205E+11
9899,20220328,20220329,1,2519,DESARU UTAMA 2 JHR,"No 101, GF","Jln Kempas, Tmn Desaru Utama",Bandar Penawar,81930,JOH,29298959,56,209806,Article 056,1,8,12,2,4,0,0,0,9.55622E+12,EA,9.55549E+12,IN,1.23124E+13,IN,1.23456E+14,EA,0,0,0,0,0,0,Dehlivery 001,1,Priority 001,MC,2.02205E+11
9899,20220328,20220329,1,2519,DESARU UTAMA 2 JHR,"No 101, GF","Jln Kempas, Tmn Desaru Utama",Bandar Penawar,81930,JOH,29298959,57,209805,Article 057,1,8,12,2,4,0,0,0,9.55622E+12,IN,9.55549E+12,EA,1.23124E+13,EA,1.23456E+14,EA,0,0,0,0,0,0,Dehlivery 001,1,Priority 001,FT,2.02205E+11
9899,20220328,20220329,1,2519,DESARU UTAMA 2 JHR,"No 101, GF","Jln Kempas, Tmn Desaru Utama",Bandar Penawar,81930,JOH,29298959,58,209329,Article 058,1,8,10,2,4,0,0,0,9.55502E+12,EA,9.55549E+12,EA,1.23124E+13,IN,1.23456E+14,IN,0,0,0,0,0,0,Dehlivery 001,1,Priority 001,FT,2.02205E+11
9899,20220328,20220329,1,2519,DESARU UTAMA 2 JHR,"No 101, GF","Jln Kempas, Tmn Desaru Utama",Bandar Penawar,81930,JOH,29298959,59,209069,Article 059,1,8,24,2,4,0,0,0,9.5564E+12,IN,9.55549E+12,IN,1.23124E+13,IN,1.23456E+14,EA,0,0,0,0,0,0,Dehlivery 001,1,Priority 001,MC,2.02205E+11
9899,20220328,20220329,1,2519,DESARU UTAMA 2 JHR,"No 101, GF","Jln Kempas, Tmn Desaru Utama",Bandar Penawar,81930,JOH,29298959,60,207779,Article 060,1,8,12,2,4,0,0,0,9.55503E+12,IN,9.55549E+12,EA,1.23124E+13,EA,1.23456E+14,EA,0,0,0,0,0,0,Dehlivery 001,1,Priority 001,MC,2.02205E+11
9899,20220328,20220329,1,2519,DESARU UTAMA 2 JHR,"No 101, GF","Jln Kempas, Tmn Desaru Utama",Bandar Penawar,81930,JOH,29298959,61,207565,Article 061,1,8,2,2,4,0,0,0,4.89103E+12,EA,9.55549E+12,IN,1.23124E+13,IN,1.23456E+14,IN,0,0,0,0,0,0,Dehlivery 001,1,Priority 001,MC,2.02205E+11
9899,20220328,20220329,1,2519,DESARU UTAMA 2 JHR,"No 101, GF","Jln Kempas, Tmn Desaru Utama",Bandar Penawar,81930,JOH,29298959,62,207535,Article 062,1,8,3,2,4,0,0,0,8.99887E+12,EA,9.55549E+12,IN,1.23124E+13,EA,1.23456E+14,EA,0,0,0,0,0,0,Dehlivery 001,1,Priority 001,MC,2.02205E+11
9899,20220328,20220329,1,2519,DESARU UTAMA 2 JHR,"No 101, GF","Jln Kempas, Tmn Desaru Utama",Bandar Penawar,81930,JOH,29298959,63,207525,Article 063,1,8,6,2,4,0,0,0,5.0004E+12,IN,9.55549E+12,EA,1.23124E+13,EA,1.23456E+14,EA,0,0,0,0,0,0,Dehlivery 001,1,Priority 001,FT,2.02205E+11
9899,20220328,20220329,1,2519,DESARU UTAMA 2 JHR,"No 101, GF","Jln Kempas, Tmn Desaru Utama",Bandar Penawar,81930,JOH,29298959,64,207386,Article 064,1,8,3,2,4,0,0,0,9.55572E+12,IN,9.55549E+12,IN,1.23124E+13,EA,1.23456E+14,IN,0,0,0,0,0,0,Dehlivery 001,1,Priority 001,MC,2.02205E+11
9899,20220328,20220329,1,2519,DESARU UTAMA 2 JHR,"No 101, GF","Jln Kempas, Tmn Desaru Utama",Bandar Penawar,81930,JOH,29298959,65,202990,Article 065,1,8,12,2,4,0,0,0,6.97087E+12,IN,9.55549E+12,EA,1.23124E+13,IN,1.23456E+14,EA,0,0,0,0,0,0,Dehlivery 001,1,Priority 001,FT,2.02205E+11
9899,20220328,20220329,1,2519,DESARU UTAMA 2 JHR,"No 101, GF","Jln Kempas, Tmn Desaru Utama",Bandar Penawar,81930,JOH,29298959,66,26213,Article 066,1,8,15,2,4,0,0,0,8.99286E+12,EA,9.55549E+12,EA,1.23124E+13,EA,1.23456E+14,EA,0,0,0,0,0,0,Dehlivery 001,1,Priority 001,FT,2.02205E+11
9899,20220328,20220329,1,2519,DESARU UTAMA 2 JHR,"No 101, GF","Jln Kempas, Tmn Desaru Utama",Bandar Penawar,81930,JOH,29298959,67,25795,Article 067,1,8,4,2,4,0,0,0,9.55603E+12,IN,9.55549E+12,IN,1.23124E+13,IN,1.23456E+14,IN,0,0,0,0,0,0,Dehlivery 001,1,Priority 001,MC,2.02205E+11
9899,20220328,20220329,1,2519,DESARU UTAMA 2 JHR,"No 101, GF","Jln Kempas, Tmn Desaru Utama",Bandar Penawar,81930,JOH,29298959,68,25754,Article 068,1,8,12,2,4,0,0,0,80135906,EA,9.55549E+12,EA,1.23124E+13,IN,1.23456E+14,EA,0,0,0,0,0,0,Dehlivery 001,1,Priority 001,FT,2.02205E+11
9899,20220328,20220329,1,2519,DESARU UTAMA 2 JHR,"No 101, GF","Jln Kempas, Tmn Desaru Utama",Bandar Penawar,81930,JOH,29298959,69,25532,Article 069,1,8,30,2,4,0,0,0,80051220,IN,9.55549E+12,IN,1.23124E+13,EA,1.23456E+14,EA,0,0,0,0,0,0,Dehlivery 001,1,Priority 001,FT,2.02205E+11
9899,20220328,20220329,1,2519,DESARU UTAMA 2 JHR,"No 101, GF","Jln Kempas, Tmn Desaru Utama",Bandar Penawar,81930,JOH,29298959,70,24647,Article 070,1,8,10,2,4,0,0,0,9.31406E+12,IN,9.55549E+12,IN,1.23124E+13,IN,1.23456E+14,IN,0,0,0,0,0,0,Dehlivery 001,1,Priority 001,MC,2.02205E+11
9899,20220328,20220329,1,2519,DESARU UTAMA 2 JHR,"No 101, GF","Jln Kempas, Tmn Desaru Utama",Bandar Penawar,81930,JOH,29298959,71,24646,Article 071,1,8,10,2,4,0,0,0,9.31406E+12,EA,9.55549E+12,IN,1.23124E+13,EA,1.23456E+14,EA,0,0,0,0,0,0,Dehlivery 001,1,Priority 001,MC,2.02205E+11
9899,20220328,20220329,1,2519,DESARU UTAMA 2 JHR,"No 101, GF","Jln Kempas, Tmn Desaru Utama",Bandar Penawar,81930,JOH,29298959,72,23890,Article 072,1,8,2,2,4,0,0,0,9.55733E+12,EA,9.55549E+12,EA,1.23124E+13,EA,1.23456E+14,EA,0,0,0,0,0,0,Dehlivery 001,1,Priority 001,MC,2.02205E+11
9899,20220328,20220329,1,2519,DESARU UTAMA 2 JHR,"No 101, GF","Jln Kempas, Tmn Desaru Utama",Bandar Penawar,81930,JOH,29298959,73,23200,Article 073,1,8,4,2,4,0,0,0,8.85001E+12,IN,9.55549E+12,EA,1.23124E+13,EA,1.23456E+14,IN,0,0,0,0,0,0,Dehlivery 001,1,Priority 001,MC,2.02205E+11
9899,20220328,20220329,1,2519,DESARU UTAMA 2 JHR,"No 101, GF","Jln Kempas, Tmn Desaru Utama",Bandar Penawar,81930,JOH,29298959,74,22799,Article 074,1,8,18,2,4,0,0,0,9.55705E+12,IN,9.55549E+12,IN,1.23124E+13,IN,1.23456E+14,EA,0,0,0,0,0,0,Dehlivery 001,1,Priority 001,FT,2.02205E+11
9899,20220328,20220329,1,2519,DESARU UTAMA 2 JHR,"No 101, GF","Jln Kempas, Tmn Desaru Utama",Bandar Penawar,81930,JOH,29298959,75,22519,Article 075,1,8,2,2,4,0,0,0,9.55629E+12,IN,9.55549E+12,EA,1.23124E+13,EA,1.23456E+14,EA,0,0,0,0,0,0,Dehlivery 001,1,Priority 001,MC,2.02205E+11
9899,20220328,20220329,1,2519,DESARU UTAMA 2 JHR,"No 101, GF","Jln Kempas, Tmn Desaru Utama",Bandar Penawar,81930,JOH,29298959,76,21287,Article 076,1,8,2,2,4,0,0,0,8.85001E+12,EA,9.55549E+12,IN,1.23124E+13,IN,1.23456E+14,IN,0,0,0,0,0,0,Dehlivery 001,1,Priority 001,FT,2.02205E+11
9899,20220328,20220329,1,2519,DESARU UTAMA 2 JHR,"No 101, GF","Jln Kempas, Tmn Desaru Utama",Bandar Penawar,81930,JOH,29298959,77,20771,Article 077,1,8,2,2,4,0,0,0,8.85111E+12,IN,9.55549E+12,IN,1.23124E+13,IN,1.23456E+14,EA,0,0,0,0,0,0,Dehlivery 001,1,Priority 001,FT,2.02205E+11
9899,20220328,20220329,1,2519,DESARU UTAMA 2 JHR,"No 101, GF","Jln Kempas, Tmn Desaru Utama",Bandar Penawar,81930,JOH,29298959,78,20324,Article 078,1,8,30,2,4,0,0,0,9.55603E+12,EA,9.55549E+12,EA,1.23124E+13,EA,1.23456E+14,EA,0,0,0,0,0,0,Dehlivery 001,1,Priority 001,MC,2.02205E+11
9899,20220328,20220329,1,2519,DESARU UTAMA 2 JHR,"No 101, GF","Jln Kempas, Tmn Desaru Utama",Bandar Penawar,81930,JOH,29298959,79,18061,Article 079,1,8,3,2,4,0,0,0,9.55604E+12,IN,9.55549E+12,IN,1.23124E+13,IN,1.23456E+14,IN,0,0,0,0,0,0,Dehlivery 001,1,Priority 001,FT,2.02205E+11
9899,20220328,20220329,1,2519,DESARU UTAMA 2 JHR,"No 101, GF","Jln Kempas, Tmn Desaru Utama",Bandar Penawar,81930,JOH,29298959,80,17911,Article 080,1,8,2,2,4,0,0,0,8.8882E+12,IN,9.55549E+12,EA,1.23124E+13,EA,1.23456E+14,EA,0,0,0,0,0,0,Dehlivery 001,1,Priority 001,FT,2.02205E+11
9899,20220328,20220329,1,2519,DESARU UTAMA 2 JHR,"No 101, GF","Jln Kempas, Tmn Desaru Utama",Bandar Penawar,81930,JOH,29298959,81,17542,Article 081,1,8,3,2,4,0,0,0,9.556E+12,EA,9.55549E+12,EA,1.23124E+13,EA,1.23456E+14,EA,0,0,0,0,0,0,Dehlivery 001,1,Priority 001,MC,2.02205E+11
9899,20220328,20220329,1,2519,DESARU UTAMA 2 JHR,"No 101, GF","Jln Kempas, Tmn Desaru Utama",Bandar Penawar,81930,JOH,29298959,82,16395,Article 082,1,8,10,2,4,0,0,0,9.55505E+12,EA,9.55549E+12,IN,1.23124E+13,EA,1.23456E+14,IN,0,0,0,0,0,0,Dehlivery 001,1,Priority 001,MC,2.02205E+11
9899,20220328,20220329,1,2519,DESARU UTAMA 2 JHR,"No 101, GF","Jln Kempas, Tmn Desaru Utama",Bandar Penawar,81930,JOH,29298959,83,16036,Article 083,1,8,3,2,4,0,0,0,9.55604E+12,IN,9.55549E+12,EA,1.23124E+13,IN,1.23456E+14,EA,0,0,0,0,0,0,Dehlivery 001,1,Priority 001,MC,2.02205E+11
9899,20220328,20220329,1,2519,DESARU UTAMA 2 JHR,"No 101, GF","Jln Kempas, Tmn Desaru Utama",Bandar Penawar,81930,JOH,29298959,84,14900,Article 084,1,8,1,2,4,0,0,0,8.90103E+12,IN,9.55549E+12,IN,1.23124E+13,EA,1.23456E+14,EA,0,0,0,0,0,0,Dehlivery 001,1,Priority 001,MC,2.02205E+11
9899,20220328,20220329,1,2519,DESARU UTAMA 2 JHR,"No 101, GF","Jln Kempas, Tmn Desaru Utama",Bandar Penawar,81930,JOH,29298959,85,14032,Article 085,1,8,24,2,4,0,0,0,95505022,IN,9.55549E+12,IN,1.23124E+13,IN,1.23456E+14,IN,0,0,0,0,0,0,Dehlivery 001,1,Priority 001,FT,2.02205E+11
9899,20220328,20220329,1,2519,DESARU UTAMA 2 JHR,"No 101, GF","Jln Kempas, Tmn Desaru Utama",Bandar Penawar,81930,JOH,29298959,86,11858,Article 086,1,8,16,2,4,0,0,0,78909434,EA,9.55549E+12,IN,1.23124E+13,IN,1.23456E+14,EA,0,0,0,0,0,0,Dehlivery 001,1,Priority 001,MC,2.02205E+11
9899,20220328,20220329,1,2519,DESARU UTAMA 2 JHR,"No 101, GF","Jln Kempas, Tmn Desaru Utama",Bandar Penawar,81930,JOH,29298959,87,11687,Article 087,1,8,24,2,4,0,0,0,95500270,IN,9.55549E+12,EA,1.23124E+13,EA,1.23456E+14,EA,0,0,0,0,0,0,Dehlivery 001,1,Priority 001,FT,2.02205E+11
9899,20220328,20220329,1,2519,DESARU UTAMA 2 JHR,"No 101, GF","Jln Kempas, Tmn Desaru Utama",Bandar Penawar,81930,JOH,29298959,88,11685,Article 088,1,8,24,2,4,0,0,0,95500294,EA,9.55549E+12,EA,1.23124E+13,IN,1.23456E+14,IN,0,0,0,0,0,0,Dehlivery 001,1,Priority 001,FT,2.02205E+11
9899,20220328,20220329,1,2519,DESARU UTAMA 2 JHR,"No 101, GF","Jln Kempas, Tmn Desaru Utama",Bandar Penawar,81930,JOH,29298959,89,11683,Article 089,1,8,24,2,4,0,0,0,95500287,IN,9.55549E+12,IN,1.23124E+13,EA,1.23456E+14,EA,0,0,0,0,0,0,Dehlivery 001,1,Priority 001,MC,2.02205E+11
9899,20220328,20220329,1,2519,DESARU UTAMA 2 JHR,"No 101, GF","Jln Kempas, Tmn Desaru Utama",Bandar Penawar,81930,JOH,29298959,90,11097,Article 090,1,8,24,2,4,0,0,0,50681976,IN,9.55549E+12,EA,1.23124E+13,EA,1.23456E+14,EA,0,0,0,0,0,0,Dehlivery 001,1,Priority 001,FT,2.02205E+11
9899,20220328,20220329,1,2519,DESARU UTAMA 2 JHR,"No 101, GF","Jln Kempas, Tmn Desaru Utama",Bandar Penawar,81930,JOH,29298959,91,11037,Article 091,1,8,5,2,4,0,0,0,9.30068E+12,EA,9.55549E+12,IN,1.23124E+13,EA,1.23456E+14,IN,0,0,0,0,0,0,Dehlivery 001,1,Priority 001,FT,2.02205E+11
9899,20220328,20220329,1,2519,DESARU UTAMA 2 JHR,"No 101, GF","Jln Kempas, Tmn Desaru Utama",Bandar Penawar,81930,JOH,29298959,92,10611,Article 092,1,8,3,2,4,0,0,0,9.556E+12,EA,9.55549E+12,IN,1.23124E+13,IN,1.23456E+14,EA,0,0,0,0,0,0,Dehlivery 001,1,Priority 001,MC,2.02205E+11
9899,20220328,20220329,1,2519,DESARU UTAMA 2 JHR,"No 101, GF","Jln Kempas, Tmn Desaru Utama",Bandar Penawar,81930,JOH,29298959,93,10520,Article 093,1,8,2,2,4,0,0,0,8.8521E+12,IN,9.55549E+12,EA,1.23124E+13,EA,1.23456E+14,EA,0,0,0,0,0,0,Dehlivery 001,1,Priority 001,MC,2.02205E+11
9899,20220328,20220329,1,2519,DESARU UTAMA 2 JHR,"No 101, GF","Jln Kempas, Tmn Desaru Utama",Bandar Penawar,81930,JOH,29298959,94,10086,Article 094,1,8,12,2,4,0,0,0,9.55618E+12,IN,9.55549E+12,IN,1.23124E+13,IN,1.23456E+14,IN,0,0,0,0,0,0,Dehlivery 001,1,Priority 001,MC,2.02205E+11
9899,20220328,20220329,1,2519,DESARU UTAMA 2 JHR,"No 101, GF","Jln Kempas, Tmn Desaru Utama",Bandar Penawar,81930,JOH,29298959,95,10003,Article 095,1,8,4,2,4,0,0,0,9.55606E+12,IN,9.55549E+12,EA,1.23124E+13,IN,1.23456E+14,EA,0,0,0,0,0,0,Dehlivery 001,1,Priority 001,MC,2.02205E+11
9899,20220328,20220329,1,2519,DESARU UTAMA 2 JHR,"No 101, GF","Jln Kempas, Tmn Desaru Utama",Bandar Penawar,81930,JOH,29298959,96,28396,Article 096,1,8,4,2,4,0,0,0,9.55502E+12,EA,9.55549E+12,EA,1.23124E+13,EA,1.23456E+14,EA,0,0,0,0,0,0,Dehlivery 001,1,Priority 001,FT,2.02205E+11
9899,20220328,20220329,1,2519,DESARU UTAMA 2 JHR,"No 101, GF","Jln Kempas, Tmn Desaru Utama",Bandar Penawar,81930,JOH,29298959,97,27176,Article 097,1,8,4,2,4,0,0,0,9.55502E+12,IN,9.55549E+12,IN,1.23124E+13,IN,1.23456E+14,IN,0,0,0,0,0,0,Dehlivery 001,1,Priority 001,MC,2.02205E+11
9899,20220328,20220329,1,2519,DESARU UTAMA 2 JHR,"No 101, GF","Jln Kempas, Tmn Desaru Utama",Bandar Penawar,81930,JOH,29298959,98,202986,Article 098,1,8,6,2,4,0,0,0,9.30068E+12,EA,9.55549E+12,EA,1.23124E+13,EA,1.23456E+14,EA,0,0,0,0,0,0,Dehlivery 001,1,Priority 001,FT,2.02205E+11
9899,20220328,20220329,1,2519,DESARU UTAMA 2 JHR,"No 101, GF","Jln Kempas, Tmn Desaru Utama",Bandar Penawar,81930,JOH,29298959,99,202964,Article 099,1,8,12,2,4,0,0,0,6.97087E+12,IN,9.55549E+12,IN,1.23124E+13,EA,1.23456E+14,EA,0,0,0,0,0,0,Dehlivery 001,1,Priority 001,FT,2.02205E+11
9899,20220328,20220329,1,2519,DESARU UTAMA 2 JHR,"No 101, GF","Jln Kempas, Tmn Desaru Utama",Bandar Penawar,81930,JOH,29298959,100,202880,Article 100,1,8,24,2,4,0,0,0,9.55603E+12,IN,9.55549E+12,IN,1.23124E+13,EA,1.23456E+14,IN,0,0,0,0,0,0,Dehlivery 001,1,Priority 001,MC,2.02205E+11
9899,20220328,20220329,1,2519,DESARU UTAMA 2 JHR,"No 101, GF","Jln Kempas, Tmn Desaru Utama",Bandar Penawar,81930,JOH,29298959,101,202863,Article 101,1,8,12,2,4,0,0,0,69025310,EA,9.55549E+12,IN,1.23124E+13,IN,1.23456E+14,EA,0,0,0,0,0,0,Dehlivery 001,1,Priority 001,FT,2.02205E+11
9899,20220328,20220329,1,2519,DESARU UTAMA 2 JHR,"No 101, GF","Jln Kempas, Tmn Desaru Utama",Bandar Penawar,81930,JOH,29298959,102,202542,Article 102,1,8,1,2,4,0,0,0,9.55604E+12,EA,9.55549E+12,EA,1.23124E+13,EA,1.23456E+14,EA,0,0,0,0,0,0,Dehlivery 001,1,Priority 001,FT,2.02205E+11
9899,20220328,20220329,1,2519,DESARU UTAMA 2 JHR,"No 101, GF","Jln Kempas, Tmn Desaru Utama",Bandar Penawar,81930,JOH,29298959,103,202541,Article 103,1,8,1,2,4,0,0,0,9.55604E+12,IN,9.55549E+12,EA,1.23124E+13,IN,1.23456E+14,IN,0,0,0,0,0,0,Dehlivery 001,1,Priority 001,MC,2.02205E+11
9899,20220328,20220329,1,2519,DESARU UTAMA 2 JHR,"No 101, GF","Jln Kempas, Tmn Desaru Utama",Bandar Penawar,81930,JOH,29298959,104,202478,Article 104,1,8,24,2,4,0,0,0,9.5564E+12,IN,9.55549E+12,IN,1.23124E+13,IN,1.23456E+14,EA,0,0,0,0,0,0,Dehlivery 001,1,Priority 001,MC,2.02205E+11
9899,20220328,20220329,1,2519,DESARU UTAMA 2 JHR,"No 101, GF","Jln Kempas, Tmn Desaru Utama",Bandar Penawar,81930,JOH,29298959,105,202477,Article 105,1,8,24,2,4,0,0,0,9.5564E+12,IN,9.55549E+12,EA,1.23124E+13,EA,1.23456E+14,EA,0,0,0,0,0,0,Dehlivery 001,1,Priority 001,MC,2.02205E+11
9899,20220328,20220329,1,2519,DESARU UTAMA 2 JHR,"No 101, GF","Jln Kempas, Tmn Desaru Utama",Bandar Penawar,81930,JOH,29298959,106,202444,Article 106,1,8,3,2,4,0,0,0,8.99887E+12,EA,9.55549E+12,IN,1.23124E+13,IN,1.23456E+14,IN,0,0,0,0,0,0,Dehlivery 001,1,Priority 001,MC,2.02205E+11
9899,20220328,20220329,1,2519,DESARU UTAMA 2 JHR,"No 101, GF","Jln Kempas, Tmn Desaru Utama",Bandar Penawar,81930,JOH,29298959,107,202218,Article 107,1,8,2,2,4,0,0,0,9.55589E+12,IN,9.55549E+12,IN,1.23124E+13,EA,1.23456E+14,EA,0,0,0,0,0,0,Dehlivery 001,1,Priority 001,FT,2.02205E+11
9899,20220328,20220329,1,2519,DESARU UTAMA 2 JHR,"No 101, GF","Jln Kempas, Tmn Desaru Utama",Bandar Penawar,81930,JOH,29298959,108,202061,Article 108,1,8,24,2,4,0,0,0,9.556E+12,EA,9.55549E+12,EA,1.23124E+13,EA,1.23456E+14,EA,0,0,0,0,0,0,Dehlivery 001,1,Priority 001,MC,2.02205E+11
9899,20220328,20220329,1,2519,DESARU UTAMA 2 JHR,"No 101, GF","Jln Kempas, Tmn Desaru Utama",Bandar Penawar,81930,JOH,29298959,109,201909,Article 109,1,8,6,2,4,0,0,0,9.55602E+12,IN,9.55549E+12,IN,1.23124E+13,EA,1.23456E+14,IN,0,0,0,0,0,0,Dehlivery 001,1,Priority 001,FT,2.02205E+11
9899,20220328,20220329,1,2519,DESARU UTAMA 2 JHR,"No 101, GF","Jln Kempas, Tmn Desaru Utama",Bandar Penawar,81930,JOH,29298959,110,201730,Article 110,1,8,12,2,4,0,0,0,7.62221E+12,IN,9.55549E+12,EA,1.23124E+13,IN,1.23456E+14,EA,0,0,0,0,0,0,Dehlivery 001,1,Priority 001,FT,2.02205E+11
9899,20220328,20220329,1,2519,DESARU UTAMA 2 JHR,"No 101, GF","Jln Kempas, Tmn Desaru Utama",Bandar Penawar,81930,JOH,29298959,111,201729,Article 111,1,8,6,2,4,0,0,0,6.91497E+12,EA,9.55549E+12,EA,1.23124E+13,EA,1.23456E+14,EA,0,0,0,0,0,0,Dehlivery 001,1,Priority 001,MC,2.02205E+11
9899,20220328,20220329,1,2519,DESARU UTAMA 2 JHR,"No 101, GF","Jln Kempas, Tmn Desaru Utama",Bandar Penawar,81930,JOH,29298959,112,201626,Article 112,1,8,24,2,4,0,0,0,9.556E+12,EA,9.55549E+12,IN,1.23124E+13,IN,1.23456E+14,IN,0,0,0,0,0,0,Dehlivery 001,1,Priority 001,FT,2.02205E+11
9899,20220328,20220329,1,2519,DESARU UTAMA 2 JHR,"No 101, GF","Jln Kempas, Tmn Desaru Utama",Bandar Penawar,81930,JOH,29298959,113,201161,Article 113,1,8,10,2,4,0,0,0,9.55602E+12,IN,9.55549E+12,EA,1.23124E+13,IN,1.23456E+14,EA,0,0,0,0,0,0,Dehlivery 001,1,Priority 001,FT,2.02205E+11
9899,20220328,20220329,1,2519,DESARU UTAMA 2 JHR,"No 101, GF","Jln Kempas, Tmn Desaru Utama",Bandar Penawar,81930,JOH,29298959,114,201120,Article 114,1,8,1,2,4,0,0,0,9.55617E+12,IN,9.55549E+12,IN,1.23124E+13,EA,1.23456E+14,EA,0,0,0,0,0,0,Dehlivery 001,1,Priority 001,MC,2.02205E+11
9899,20220328,20220329,1,2519,DESARU UTAMA 2 JHR,"No 101, GF","Jln Kempas, Tmn Desaru Utama",Bandar Penawar,81930,JOH,29298959,115,200371,Article 115,1,8,12,2,4,0,0,0,6.97087E+12,IN,9.55549E+12,IN,1.23124E+13,IN,1.23456E+14,IN,0,0,0,0,0,0,Dehlivery 001,1,Priority 001,MC,2.02205E+11
9899,20220328,20220329,1,2519,DESARU UTAMA 2 JHR,"No 101, GF","Jln Kempas, Tmn Desaru Utama",Bandar Penawar,81930,JOH,29298959,116,200369,Article 116,1,8,12,2,4,0,0,0,6.97087E+12,EA,9.55549E+12,IN,1.23124E+13,EA,1.23456E+14,EA,0,0,0,0,0,0,Dehlivery 001,1,Priority 001,MC,2.02205E+11
9899,20220328,20220329,1,2519,DESARU UTAMA 2 JHR,"No 101, GF","Jln Kempas, Tmn Desaru Utama",Bandar Penawar,81930,JOH,29298959,117,200127,Article 117,1,8,4,2,4,0,0,0,8.80106E+12,IN,9.55549E+12,EA,1.23124E+13,EA,1.23456E+14,EA,0,0,0,0,0,0,Dehlivery 001,1,Priority 001,MC,2.02205E+11
9899,20220328,20220329,1,2519,DESARU UTAMA 2 JHR,"No 101, GF","Jln Kempas, Tmn Desaru Utama",Bandar Penawar,81930,JOH,29298959,118,200119,Article 118,1,8,8,2,4,0,0,0,8.80106E+12,EA,9.55549E+12,EA,1.23124E+13,EA,1.23456E+14,IN,0,0,0,0,0,0,Dehlivery 001,1,Priority 001,FT,2.02205E+11
9899,20220328,20220329,1,2519,DESARU UTAMA 2 JHR,"No 101, GF","Jln Kempas, Tmn Desaru Utama",Bandar Penawar,81930,JOH,29298959,119,28385,Article 119,1,8,6,2,4,0,0,0,9.556E+12,IN,9.55549E+12,IN,1.23124E+13,IN,1.23456E+14,EA,0,0,0,0,0,0,Dehlivery 001,1,Priority 001,MC,2.02205E+11
9899,20220328,20220329,1,2519,DESARU UTAMA 2 JHR,"No 101, GF","Jln Kempas, Tmn Desaru Utama",Bandar Penawar,81930,JOH,29298959,120,28182,Article 120,1,8,24,2,4,0,0,0,95507095,IN,9.55549E+12,EA,1.23124E+13,EA,1.23456E+14,EA,0,0,0,0,0,0,Dehlivery 001,1,Priority 001,FT,2.02205E+11
9899,20220328,20220329,1,2519,DESARU UTAMA 2 JHR,"No 101, GF","Jln Kempas, Tmn Desaru Utama",Bandar Penawar,81930,JOH,29298959,121,27986,Article 121,1,8,24,2,4,0,0,0,90415586,EA,9.55549E+12,IN,1.23124E+13,IN,1.23456E+14,IN,0,0,0,0,0,0,Dehlivery 001,1,Priority 001,FT,2.02205E+11
9899,20220328,20220329,1,2519,DESARU UTAMA 2 JHR,"No 101, GF","Jln Kempas, Tmn Desaru Utama",Bandar Penawar,81930,JOH,29298959,122,27880,Article 122,1,8,10,2,4,0,0,0,8.85102E+12,EA,9.55549E+12,IN,1.23124E+13,IN,1.23456E+14,EA,0,0,0,0,0,0,Dehlivery 001,1,Priority 001,MC,2.02205E+11
9899,20220328,20220329,1,2519,DESARU UTAMA 2 JHR,"No 101, GF","Jln Kempas, Tmn Desaru Utama",Bandar Penawar,81930,JOH,29298959,123,27879,Article 123,1,8,10,2,4,0,0,0,8.85102E+12,IN,9.55549E+12,EA,1.23124E+13,EA,1.23456E+14,EA,0,0,0,0,0,0,Dehlivery 001,1,Priority 001,FT,2.02205E+11
9899,20220328,20220329,1,2519,DESARU UTAMA 2 JHR,"No 101, GF","Jln Kempas, Tmn Desaru Utama",Bandar Penawar,81930,JOH,29298959,124,27239,Article 124,1,8,6,2,4,0,0,0,9.30068E+12,IN,9.55549E+12,IN,1.23124E+13,IN,1.23456E+14,IN,0,0,0,0,0,0,Dehlivery 001,1,Priority 001,FT,2.02205E+11
9899,20220328,20220329,1,2519,DESARU UTAMA 2 JHR,"No 101, GF","Jln Kempas, Tmn Desaru Utama",Bandar Penawar,81930,JOH,29298959,125,27163,Article 125,1,8,4,2,4,0,0,0,8.9923E+12,IN,9.55549E+12,EA,1.23124E+13,EA,1.23456E+14,EA,0,0,0,0,0,0,Dehlivery 001,1,Priority 001,MC,2.02205E+11
9899,20220328,20220329,1,2519,DESARU UTAMA 2 JHR,"No 101, GF","Jln Kempas, Tmn Desaru Utama",Bandar Penawar,81930,JOH,29298959,126,27064,Article 126,1,8,12,2,4,0,0,0,9.55602E+12,EA,9.55549E+12,EA,1.23124E+13,EA,1.23456E+14,EA,0,0,0,0,0,0,Dehlivery 001,1,Priority 001,MC,2.02205E+11
9899,20220328,20220329,1,2519,DESARU UTAMA 2 JHR,"No 101, GF","Jln Kempas, Tmn Desaru Utama",Bandar Penawar,81930,JOH,29298959,127,27025,Article 127,1,8,10,2,4,0,0,0,8.9945E+12,IN,9.55549E+12,IN,1.23124E+13,EA,1.23456E+14,IN,0,0,0,0,0,0,Dehlivery 001,1,Priority 001,MC,2.02205E+11
9899,20220328,20220329,1,2519,DESARU UTAMA 2 JHR,"No 101, GF","Jln Kempas, Tmn Desaru Utama",Bandar Penawar,81930,JOH,29298959,128,26984,Article 128,1,8,2,2,4,0,0,0,9.55602E+12,EA,9.55549E+12,EA,1.23124E+13,IN,1.23456E+14,EA,0,0,0,0,0,0,Dehlivery 001,1,Priority 001,MC,2.02205E+11
9899,20220328,20220329,1,2519,DESARU UTAMA 2 JHR,"No 101, GF","Jln Kempas, Tmn Desaru Utama",Bandar Penawar,81930,JOH,29298959,129,26831,Article 129,1,8,3,2,4,0,0,0,4.0059E+12,IN,9.55549E+12,IN,1.23124E+13,EA,1.23456E+14,EA,0,0,0,0,0,0,Dehlivery 001,1,Priority 001,FT,2.02205E+11
9899,20220328,20220329,1,2519,DESARU UTAMA 2 JHR,"No 101, GF","Jln Kempas, Tmn Desaru Utama",Bandar Penawar,81930,JOH,29298959,130,900170,Article 130,1,8,1,2,4,0,0,0,2E+12,IN,9.55549E+12,IN,1.23124E+13,IN,1.23456E+14,IN,0,0,0,0,0,0,Dehlivery 001,1,Priority 001,MC,2.02205E+11
,,,,,,,,,,,,,,,,,,2,4,0,,,,,,,,,,,,,,,,,Dehlivery 001,1,Priority 001,FT,2.02205E+11
,,,,,,,,,,,,,,,,,,2,4,0,,,,,,,,,,,,,,,,,Dehlivery 001,1,Priority 001,FT,2.02205E+11
,,,,,,,,,,,,,,,,,,2,4,0,,,,,,,,,,,,,,,,,Dehlivery 001,1,Priority 001,MC,2.02205E+11
,,,,,,,,,,,,,,,,,,2,4,0,,,,,,,,,,,,,,,,,Dehlivery 001,1,Priority 001,FT,2.02205E+11
,,,,,,,,,,,,,,,,,,2,4,0,,,,,,,,,,,,,,,,,Dehlivery 001,1,Priority 001,FT,2.02205E+11
,,,,,,,,,,,,,,,,,,2,4,0,,,,,,,,,,,,,,,,,Dehlivery 001,1,Priority 001,MC,2.02205E+11
,,,,,,,,,,,,,,,,,,2,4,0,,,,,,,,,,,,,,,,,Dehlivery 001,1,Priority 001,MC,2.02205E+11
,,,,,,,,,,,,,,,,,,2,4,0,,,,,,,,,,,,,,,,,Dehlivery 001,1,Priority 001,MC,2.02205E+11
,,,,,,,,,,,,,,,,,,2,4,0,,,,,,,,,,,,,,,,,Dehlivery 001,1,Priority 001,MC,2.02205E+11
,,,,,,,,,,,,,,,,,,2,4,0,,,,,,,,,,,,,,,,,Dehlivery 001,1,Priority 001,FT,2.02205E+11
,,,,,,,,,,,,,,,,,,2,4,0,,,,,,,,,,,,,,,,,Dehlivery 001,1,Priority 001,MC,2.02205E+11
,,,,,,,,,,,,,,,,,,2,4,0,,,,,,,,,,,,,,,,,Dehlivery 001,1,Priority 001,FT,2.02205E+11
,,,,,,,,,,,,,,,,,,2,4,0,,,,,,,,,,,,,,,,,Dehlivery 001,1,Priority 001,FT,2.02205E+11
,,,,,,,,,,,,,,,,,,2,4,0,,,,,,,,,,,,,,,,,Dehlivery 001,1,Priority 001,MC,2.02205E+11
,,,,,,,,,,,,,,,,,,2,4,0,,,,,,,,,,,,,,,,,Dehlivery 001,1,Priority 001,FT,2.02205E+11
,,,,,,,,,,,,,,,,,,2,4,0,,,,,,,,,,,,,,,,,Dehlivery 001,1,Priority 001,FT,2.02205E+11
,,,,,,,,,,,,,,,,,,2,4,0,,,,,,,,,,,,,,,,,Dehlivery 001,1,Priority 001,MC,2.02205E+11
,,,,,,,,,,,,,,,,,,2,4,0,,,,,,,,,,,,,,,,,Dehlivery 001,1,Priority 001,MC,2.02205E+11
,,,,,,,,,,,,,,,,,,2,4,0,,,,,,,,,,,,,,,,,Dehlivery 001,1,Priority 001,MC,2.02205E+11
,,,,,,,,,,,,,,,,,,2,4,0,,,,,,,,,,,,,,,,,Dehlivery 001,1,Priority 001,MC,2.02205E+11
,,,,,,,,,,,,,,,,,,2,4,0,,,,,,,,,,,,,,,,,Dehlivery 001,1,Priority 001,FT,2.02205E+11
,,,,,,,,,,,,,,,,,,2,4,0,,,,,,,,,,,,,,,,,Dehlivery 001,1,Priority 001,MC,2.02205E+11
,,,,,,,,,,,,,,,,,,2,4,0,,,,,,,,,,,,,,,,,Dehlivery 001,1,Priority 001,FT,2.02205E+11
,,,,,,,,,,,,,,,,,,2,4,0,,,,,,,,,,,,,,,,,Dehlivery 001,1,Priority 001,FT,2.02205E+11
,,,,,,,,,,,,,,,,,,2,4,0,,,,,,,,,,,,,,,,,Dehlivery 001,1,Priority 001,MC,2.02205E+11
,,,,,,,,,,,,,,,,,,2,4,0,,,,,,,,,,,,,,,,,Dehlivery 001,1,Priority 001,FT,2.02205E+11
,,,,,,,,,,,,,,,,,,2,4,0,,,,,,,,,,,,,,,,,Dehlivery 001,1,Priority 001,FT,2.02205E+11
,,,,,,,,,,,,,,,,,,2,4,0,,,,,,,,,,,,,,,,,Dehlivery 001,1,Priority 001,MC,2.02205E+11
,,,,,,,,,,,,,,,,,,2,4,0,,,,,,,,,,,,,,,,,Dehlivery 001,1,Priority 001,MC,2.02205E+11
,,,,,,,,,,,,,,,,,,2,4,0,,,,,,,,,,,,,,,,,Dehlivery 001,1,Priority 001,MC,2.02205E+11
,,,,,,,,,,,,,,,,,,2,4,0,,,,,,,,,,,,,,,,,Dehlivery 001,1,Priority 001,MC,2.02205E+11
,,,,,,,,,,,,,,,,,,2,4,0,,,,,,,,,,,,,,,,,Dehlivery 001,1,Priority 001,FT,2.02205E+11
,,,,,,,,,,,,,,,,,,2,4,0,,,,,,,,,,,,,,,,,Dehlivery 001,1,Priority 001,MC,2.02205E+11
,,,,,,,,,,,,,,,,,,2,4,0,,,,,,,,,,,,,,,,,Dehlivery 001,1,Priority 001,FT,2.02205E+11
,,,,,,,,,,,,,,,,,,2,4,0,,,,,,,,,,,,,,,,,Dehlivery 001,1,Priority 001,FT,2.02205E+11
,,,,,,,,,,,,,,,,,,2,4,0,,,,,,,,,,,,,,,,,Dehlivery 001,1,Priority 001,MC,2.02205E+11
,,,,,,,,,,,,,,,,,,2,4,0,,,,,,,,,,,,,,,,,Dehlivery 001,1,Priority 001,FT,2.02205E+11
,,,,,,,,,,,,,,,,,,2,4,0,,,,,,,,,,,,,,,,,Dehlivery 001,1,Priority 001,FT,2.02205E+11
,,,,,,,,,,,,,,,,,,2,4,0,,,,,,,,,,,,,,,,,Dehlivery 001,1,Priority 001,MC,2.02205E+11
,,,,,,,,,,,,,,,,,,2,4,0,,,,,,,,,,,,,,,,,Dehlivery 001,1,Priority 001,MC,2.02205E+11
,,,,,,,,,,,,,,,,,,2,4,0,,,,,,,,,,,,,,,,,Dehlivery 001,1,Priority 001,MC,2.02205E+11
,,,,,,,,,,,,,,,,,,2,4,0,,,,,,,,,,,,,,,,,Dehlivery 001,1,Priority 001,MC,2.02205E+11
,,,,,,,,,,,,,,,,,,2,4,0,,,,,,,,,,,,,,,,,Dehlivery 001,1,Priority 001,FT,2.02205E+11
,,,,,,,,,,,,,,,,,,2,4,0,,,,,,,,,,,,,,,,,Dehlivery 001,1,Priority 001,MC,2.02205E+11
,,,,,,,,,,,,,,,,,,2,4,0,,,,,,,,,,,,,,,,,Dehlivery 001,1,Priority 001,FT,2.02205E+11
,,,,,,,,,,,,,,,,,,2,4,0,,,,,,,,,,,,,,,,,Dehlivery 001,1,Priority 001,FT,2.02205E+11
,,,,,,,,,,,,,,,,,,2,4,0,,,,,,,,,,,,,,,,,Dehlivery 001,1,Priority 001,MC,2.02205E+11
,,,,,,,,,,,,,,,,,,2,4,0,,,,,,,,,,,,,,,,,Dehlivery 001,1,Priority 001,FT,2.02205E+11
,,,,,,,,,,,,,,,,,,2,4,0,,,,,,,,,,,,,,,,,Dehlivery 001,1,Priority 001,FT,2.02205E+11
,,,,,,,,,,,,,,,,,,2,4,0,,,,,,,,,,,,,,,,,Dehlivery 001,1,Priority 001,MC,2.02205E+11
,,,,,,,,,,,,,,,,,,2,4,0,,,,,,,,,,,,,,,,,Dehlivery 001,1,Priority 001,MC,2.02205E+11
,,,,,,,,,,,,,,,,,,2,4,0,,,,,,,,,,,,,,,,,Dehlivery 001,1,Priority 001,MC,2.02205E+11
,,,,,,,,,,,,,,,,,,2,4,0,,,,,,,,,,,,,,,,,Dehlivery 001,1,Priority 001,MC,2.02205E+11
,,,,,,,,,,,,,,,,,,2,4,0,,,,,,,,,,,,,,,,,Dehlivery 001,1,Priority 001,FT,2.02205E+11
,,,,,,,,,,,,,,,,,,2,4,0,,,,,,,,,,,,,,,,,Dehlivery 001,1,Priority 001,MC,2.02205E+11
,,,,,,,,,,,,,,,,,,2,4,0,,,,,,,,,,,,,,,,,Dehlivery 001,1,Priority 001,FT,2.02205E+11
,,,,,,,,,,,,,,,,,,2,4,0,,,,,,,,,,,,,,,,,Dehlivery 001,1,Priority 001,FT,2.02205E+11
,,,,,,,,,,,,,,,,,,2,4,0,,,,,,,,,,,,,,,,,Dehlivery 001,1,Priority 001,MC,2.02205E+11
,,,,,,,,,,,,,,,,,,2,4,0,,,,,,,,,,,,,,,,,Dehlivery 001,1,Priority 001,FT,2.02205E+11
,,,,,,,,,,,,,,,,,,2,4,0,,,,,,,,,,,,,,,,,Dehlivery 001,1,Priority 001,FT,2.02205E+11
,,,,,,,,,,,,,,,,,,2,4,0,,,,,,,,,,,,,,,,,Dehlivery 001,1,Priority 001,MC,2.02205E+11
,,,,,,,,,,,,,,,,,,2,4,0,,,,,,,,,,,,,,,,,Dehlivery 001,1,Priority 001,MC,2.02205E+11
,,,,,,,,,,,,,,,,,,2,4,0,,,,,,,,,,,,,,,,,Dehlivery 001,1,Priority 001,MC,2.02205E+11
,,,,,,,,,,,,,,,,,,2,4,0,,,,,,,,,,,,,,,,,Dehlivery 001,1,Priority 001,MC,2.02205E+11
,,,,,,,,,,,,,,,,,,2,4,0,,,,,,,,,,,,,,,,,Dehlivery 001,1,Priority 001,FT,2.02205E+11
,,,,,,,,,,,,,,,,,,2,4,0,,,,,,,,,,,,,,,,,Dehlivery 001,1,Priority 001,MC,2.02205E+11
,,,,,,,,,,,,,,,,,,2,4,0,,,,,,,,,,,,,,,,,Dehlivery 001,1,Priority 001,FT,2.02205E+11
,,,,,,,,,,,,,,,,,,2,4,0,,,,,,,,,,,,,,,,,Dehlivery 001,1,Priority 001,FT,2.02205E+11
,,,,,,,,,,,,,,,,,,2,4,0,,,,,,,,,,,,,,,,,Dehlivery 001,1,Priority 001,MC,2.02205E+11
,,,,,,,,,,,,,,,,,,2,4,0,,,,,,,,,,,,,,,,,Dehlivery 001,1,Priority 001,FT,2.02205E+11
,,,,,,,,,,,,,,,,,,2,4,0,,,,,,,,,,,,,,,,,Dehlivery 001,1,Priority 001,FT,2.02205E+11
,,,,,,,,,,,,,,,,,,2,4,0,,,,,,,,,,,,,,,,,Dehlivery 001,1,Priority 001,MC,2.02205E+11
,,,,,,,,,,,,,,,,,,2,4,0,,,,,,,,,,,,,,,,,Dehlivery 001,1,Priority 001,MC,2.02205E+11
,,,,,,,,,,,,,,,,,,2,4,0,,,,,,,,,,,,,,,,,Dehlivery 001,1,Priority 001,MC,2.02205E+11
,,,,,,,,,,,,,,,,,,2,4,0,,,,,,,,,,,,,,,,,Dehlivery 001,1,Priority 001,MC,2.02205E+11
,,,,,,,,,,,,,,,,,,2,4,0,,,,,,,,,,,,,,,,,Dehlivery 001,1,Priority 001,FT,2.02205E+11
,,,,,,,,,,,,,,,,,,2,4,0,,,,,,,,,,,,,,,,,Dehlivery 001,1,Priority 001,MC,2.02205E+11
,,,,,,,,,,,,,,,,,,2,4,0,,,,,,,,,,,,,,,,,Dehlivery 001,1,Priority 001,FT,2.02205E+11
,,,,,,,,,,,,,,,,,,2,4,0,,,,,,,,,,,,,,,,,Dehlivery 001,1,Priority 001,FT,2.02205E+11
,,,,,,,,,,,,,,,,,,2,4,0,,,,,,,,,,,,,,,,,Dehlivery 001,1,Priority 001,MC,2.02205E+11
,,,,,,,,,,,,,,,,,,2,4,0,,,,,,,,,,,,,,,,,Dehlivery 001,1,Priority 001,FT,2.02205E+11
,,,,,,,,,,,,,,,,,,2,4,0,,,,,,,,,,,,,,,,,Dehlivery 001,1,Priority 001,FT,2.02205E+11
,,,,,,,,,,,,,,,,,,2,4,0,,,,,,,,,,,,,,,,,Dehlivery 001,1,Priority 001,MC,2.02205E+11
,,,,,,,,,,,,,,,,,,2,4,0,,,,,,,,,,,,,,,,,Dehlivery 001,1,Priority 001,MC,2.02205E+11
,,,,,,,,,,,,,,,,,,2,4,0,,,,,,,,,,,,,,,,,Dehlivery 001,1,Priority 001,MC,2.02205E+11
,,,,,,,,,,,,,,,,,,2,4,0,,,,,,,,,,,,,,,,,Dehlivery 001,1,Priority 001,MC,2.02205E+11
,,,,,,,,,,,,,,,,,,2,4,0,,,,,,,,,,,,,,,,,Dehlivery 001,1,Priority 001,FT,2.02205E+11
,,,,,,,,,,,,,,,,,,2,4,0,,,,,,,,,,,,,,,,,Dehlivery 001,1,Priority 001,MC,2.02205E+11
,,,,,,,,,,,,,,,,,,2,4,0,,,,,,,,,,,,,,,,,Dehlivery 001,1,Priority 001,FT,2.02205E+11
,,,,,,,,,,,,,,,,,,2,4,0,,,,,,,,,,,,,,,,,Dehlivery 001,1,Priority 001,FT,2.02205E+11
,,,,,,,,,,,,,,,,,,2,4,0,,,,,,,,,,,,,,,,,Dehlivery 001,1,Priority 001,MC,2.02205E+11
,,,,,,,,,,,,,,,,,,2,4,0,,,,,,,,,,,,,,,,,Dehlivery 001,1,Priority 001,FT,2.02205E+11
,,,,,,,,,,,,,,,,,,2,4,0,,,,,,,,,,,,,,,,,Dehlivery 001,1,Priority 001,FT,2.02205E+11
,,,,,,,,,,,,,,,,,,2,4,0,,,,,,,,,,,,,,,,,Dehlivery 001,1,Priority 001,MC,2.02205E+11
,,,,,,,,,,,,,,,,,,2,4,0,,,,,,,,,,,,,,,,,Dehlivery 001,1,Priority 001,MC,2.02205E+11
,,,,,,,,,,,,,,,,,,2,4,0,,,,,,,,,,,,,,,,,Dehlivery 001,1,Priority 001,MC,2.02205E+11
,,,,,,,,,,,,,,,,,,2,4,0,,,,,,,,,,,,,,,,,Dehlivery 001,1,Priority 001,MC,2.02205E+11
,,,,,,,,,,,,,,,,,,2,4,0,,,,,,,,,,,,,,,,,Dehlivery 001,1,Priority 001,FT,2.02205E+11
,,,,,,,,,,,,,,,,,,2,4,0,,,,,,,,,,,,,,,,,Dehlivery 001,1,Priority 001,MC,2.02205E+11
,,,,,,,,,,,,,,,,,,2,4,0,,,,,,,,,,,,,,,,,Dehlivery 001,1,Priority 001,FT,2.02205E+11
,,,,,,,,,,,,,,,,,,2,4,0,,,,,,,,,,,,,,,,,Dehlivery 001,1,Priority 001,FT,2.02205E+11
,,,,,,,,,,,,,,,,,,2,4,0,,,,,,,,,,,,,,,,,Dehlivery 001,1,Priority 001,MC,2.02205E+11
,,,,,,,,,,,,,,,,,,2,4,0,,,,,,,,,,,,,,,,,Dehlivery 001,1,Priority 001,FT,2.02205E+11
,,,,,,,,,,,,,,,,,,2,4,0,,,,,,,,,,,,,,,,,Dehlivery 001,1,Priority 001,FT,2.02205E+11
,,,,,,,,,,,,,,,,,,2,4,0,,,,,,,,,,,,,,,,,Dehlivery 001,1,Priority 001,MC,2.02205E+11
,,,,,,,,,,,,,,,,,,2,4,0,,,,,,,,,,,,,,,,,Dehlivery 001,1,Priority 001,MC,2.02205E+11
,,,,,,,,,,,,,,,,,,2,4,0,,,,,,,,,,,,,,,,,Dehlivery 001,1,Priority 001,MC,2.02205E+11
,,,,,,,,,,,,,,,,,,2,4,0,,,,,,,,,,,,,,,,,Dehlivery 001,1,Priority 001,MC,2.02205E+11
,,,,,,,,,,,,,,,,,,2,4,0,,,,,,,,,,,,,,,,,Dehlivery 001,1,Priority 001,FT,2.02205E+11
,,,,,,,,,,,,,,,,,,2,4,0,,,,,,,,,,,,,,,,,Dehlivery 001,1,Priority 001,MC,2.02205E+11
,,,,,,,,,,,,,,,,,,2,4,0,,,,,,,,,,,,,,,,,Dehlivery 001,1,Priority 001,FT,2.02205E+11
,,,,,,,,,,,,,,,,,,2,4,0,,,,,,,,,,,,,,,,,Dehlivery 001,1,Priority 001,FT,2.02205E+11
,,,,,,,,,,,,,,,,,,2,4,0,,,,,,,,,,,,,,,,,Dehlivery 001,1,Priority 001,MC,2.02205E+11
,,,,,,,,,,,,,,,,,,2,4,0,,,,,,,,,,,,,,,,,Dehlivery 001,1,Priority 001,FT,2.02205E+11
,,,,,,,,,,,,,,,,,,2,4,0,,,,,,,,,,,,,,,,,Dehlivery 001,1,Priority 001,FT,2.02205E+11
,,,,,,,,,,,,,,,,,,2,4,0,,,,,,,,,,,,,,,,,Dehlivery 001,1,Priority 001,MC,2.02205E+11
,,,,,,,,,,,,,,,,,,2,4,0,,,,,,,,,,,,,,,,,Dehlivery 001,1,Priority 001,MC,2.02205E+11
,,,,,,,,,,,,,,,,,,2,4,0,,,,,,,,,,,,,,,,,Dehlivery 001,1,Priority 001,MC,2.02205E+11
,,,,,,,,,,,,,,,,,,2,4,0,,,,,,,,,,,,,,,,,Dehlivery 001,1,Priority 001,MC,2.02205E+11
,,,,,,,,,,,,,,,,,,2,4,0,,,,,,,,,,,,,,,,,Dehlivery 001,1,Priority 001,FT,2.02205E+11
,,,,,,,,,,,,,,,,,,2,4,0,,,,,,,,,,,,,,,,,Dehlivery 001,1,Priority 001,MC,2.02205E+11
,,,,,,,,,,,,,,,,,,2,4,0,,,,,,,,,,,,,,,,,Dehlivery 001,1,Priority 001,FT,2.02205E+11
,,,,,,,,,,,,,,,,,,2,4,0,,,,,,,,,,,,,,,,,Dehlivery 001,1,Priority 001,FT,2.02205E+11
,,,,,,,,,,,,,,,,,,2,4,0,,,,,,,,,,,,,,,,,Dehlivery 001,1,Priority 001,MC,2.02205E+11
,,,,,,,,,,,,,,,,,,2,4,0,,,,,,,,,,,,,,,,,Dehlivery 001,1,Priority 001,FT,2.02205E+11
,,,,,,,,,,,,,,,,,,2,4,0,,,,,,,,,,,,,,,,,Dehlivery 001,1,Priority 001,FT,2.02205E+11
,,,,,,,,,,,,,,,,,,2,4,0,,,,,,,,,,,,,,,,,Dehlivery 001,1,Priority 001,MC,2.02205E+11
,,,,,,,,,,,,,,,,,,2,4,0,,,,,,,,,,,,,,,,,Dehlivery 001,1,Priority 001,MC,2.02205E+11
,,,,,,,,,,,,,,,,,,2,4,0,,,,,,,,,,,,,,,,,Dehlivery 001,1,Priority 001,MC,2.02205E+11
,,,,,,,,,,,,,,,,,,2,4,0,,,,,,,,,,,,,,,,,Dehlivery 001,1,Priority 001,MC,2.02205E+11
,,,,,,,,,,,,,,,,,,2,4,0,,,,,,,,,,,,,,,,,Dehlivery 001,1,Priority 001,FT,2.02205E+11
,,,,,,,,,,,,,,,,,,2,4,0,,,,,,,,,,,,,,,,,Dehlivery 001,1,Priority 001,MC,2.02205E+11
,,,,,,,,,,,,,,,,,,2,4,0,,,,,,,,,,,,,,,,,Dehlivery 001,1,Priority 001,FT,2.02205E+11
